$$SOE
2460154.500000000, A.D. 2023-Jul-29 00:00:00.0000, 5.240502368435296E+08, 5.150427186503123E+07, 4.555471601907510E+06,
2460161.500000000, A.D. 2023-Aug-05 00:00:00.0000, 5.232572735185236E+08, 5.903379425684753E+07, 3.872284142055880E+06,
2460168.500000000, A.D. 2023-Aug-12 00:00:00.0000, 5.222903929558019E+08, 6.654401321570247E+07, 3.187790303375598E+06,
2460175.500000000, A.D. 2023-Aug-19 00:00:00.0000, 5.211498440377026E+08, 7.403242481504840E+07, 2.502217917913817E+06,
2460182.500000000, A.D. 2023-Aug-26 00:00:00.0000, 5.198358694928311E+08, 8.149652080418953E+07, 1.815795047042493E+06,
2460189.500000000, A.D. 2023-Sep-02 00:00:00.0000, 5.183487061652796E+08, 8.893378667056988E+07, 1.128750161642283E+06,
2460196.500000000, A.D. 2023-Sep-09 00:00:00.0000, 5.166885853335027E+08, 9.634169958454072E+07, 4.413123119299561E+05,
2460203.500000000, A.D. 2023-Sep-16 00:00:00.0000, 5.148557332478922E+08, 1.037177261644166E+08, -2.462887329800278E+05,
2460210.500000000, A.D. 2023-Sep-23 00:00:00.0000, 5.128503723033083E+08, 1.110593203443292E+08, -9.338223902941793E+05,
2460217.500000000, A.D. 2023-Sep-30 00:00:00.0000, 5.106727225060393E+08, 1.183639225322482E+08, -1.621057084744781E+06,
2460224.500000000, A.D. 2023-Oct-07 00:00:00.0000, 5.083230008821235E+08, 1.256289595136527E+08, -2.307759813630298E+06,
2460231.500000000, A.D. 2023-Oct-14 00:00:00.0000, 5.058014198703620E+08, 1.328518417853691E+08, -2.993695821177416E+06,
2460238.500000000, A.D. 2023-Oct-21 00:00:00.0000, 5.031081879313036E+08, 1.400299599185692E+08, -3.678628546890944E+06,
2460245.500000000, A.D. 2023-Oct-28 00:00:00.0000, 5.002435109498774E+08, 1.471606822077184E+08, -4.362319531959593E+06,
2460252.500000000, A.D. 2023-Nov-04 00:00:00.0000, 4.972075931846100E+08, 1.542413528319125E+08, -5.044528231366038E+06,
2460259.500000000, A.D. 2023-Nov-11 00:00:00.0000, 4.940006379443952E+08, 1.612692899252278E+08, -5.725011796386845E+06,
2460266.500000000, A.D. 2023-Nov-18 00:00:00.0000, 4.906228482157981E+08, 1.682417834880790E+08, -6.403524852277093E+06,
2460273.500000000, A.D. 2023-Nov-25 00:00:00.0000, 4.870744273173416E+08, 1.751560931583665E+08, -7.079819275401883E+06,
2460280.500000000, A.D. 2023-Dec-02 00:00:00.0000, 4.833555796128541E+08, 1.820094458273880E+08, -7.753643972767413E+06,
2460287.500000000, A.D. 2023-Dec-09 00:00:00.0000, 4.794665113659943E+08, 1.887990330377209E+08, -8.424744675405957E+06,
2460294.500000000, A.D. 2023-Dec-16 00:00:00.0000, 4.754074320282400E+08, 1.955220081714832E+08, -9.092863770549551E+06,
2460301.500000000, A.D. 2023-Dec-23 00:00:00.0000, 4.711785563133403E+08, 2.021754841116880E+08, -9.757740148069650E+06,
2460308.500000000, A.D. 2023-Dec-30 00:00:00.0000, 4.667801057218327E+08, 2.087565324216227E+08, -1.041910885215071E+07,
2460315.500000000, A.D. 2024-Jan-06 00:00:00.0000, 4.622123077489026E+08, 2.152621816786812E+08, -1.107670056809831E+07,
2460322.500000000, A.D. 2024-Jan-13 00:00:00.0000, 4.574753959563764E+08, 2.216894131517777E+08, -1.173024138275240E+07,
2460329.500000000, A.D. 2024-Jan-20 00:00:00.0000, 4.525696121390153E+08, 2.280351569015799E+08, -1.237945267853653E+07,
2460336.500000000, A.D. 2024-Jan-27 00:00:00.0000, 4.474952085628397E+08, 2.342962889512075E+08, -1.302405092148045E+07,
2460343.500000000, A.D. 2024-Feb-03 00:00:00.0000, 4.422524498550189E+08, 2.404696285746047E+08, -1.366374738110849E+07,
2460350.500000000, A.D. 2024-Feb-10 00:00:00.0000, 4.368416148315904E+08, 2.465519354071092E+08, -1.429824783107615E+07,
2460357.500000000, A.D. 2024-Feb-17 00:00:00.0000, 4.312629984113554E+08, 2.525399063816254E+08, -1.492725224223302E+07,
2460364.500000000, A.D. 2024-Feb-24 00:00:00.0000, 4.255169136623186E+08, 2.584301725006444E+08, -1.555045446975251E+07,
2460371.500000000, A.D. 2024-Mar-02 00:00:00.0000, 4.196036940214067E+08, 2.642192954070856E+08, -1.616754193916760E+07,
2460378.500000000, A.D. 2024-Mar-09 00:00:00.0000, 4.135236958388421E+08, 2.699037636866957E+08, -1.677819534864140E+07,
2460385.500000000, A.D. 2024-Mar-16 00:00:00.0000, 4.072773016564217E+08, 2.754799890946380E+08, -1.738208840707834E+07,
2460392.500000000, A.D. 2024-Mar-23 00:00:00.0000, 4.008649241305401E+08, 2.809443038098369E+08, -1.797888750739357E+07,
2460399.500000000, A.D. 2024-Mar-30 00:00:00.0000, 3.942870083729538E+08, 2.862929586854979E+08, -1.856825113075282E+07,
2460406.500000000, A.D. 2024-Apr-06 00:00:00.0000, 3.875440329829435E+08, 2.915221191258507E+08, -1.914982927964711E+07,
2460413.500000000, A.D. 2024-Apr-13 00:00:00.0000, 3.806365133430376E+08, 2.966278594219342E+08, -1.972326319666629E+07,
2460420.500000000, A.D. 2024-Apr-20 00:00:00.0000, 3.735650062466403E+08, 3.016061582181984E+08, -2.028818506227824E+07,
2460427.500000000, A.D. 2024-Apr-27 00:00:00.0000, 3.663301143624847E+08, 3.064528945448931E+08, -2.084421757756452E+07,
2460434.500000000, A.D. 2024-May-04 00:00:00.0000, 3.589324906485655E+08, 3.111638437098504E+08, -2.139097349670824E+07,
2460441.500000000, A.D. 2024-May-11 00:00:00.0000, 3.513728429808726E+08, 3.157346729448116E+08, -2.192805513866873E+07,
2460448.500000000, A.D. 2024-May-18 00:00:00.0000, 3.436519391076052E+08, 3.201609368249007E+08, -2.245505388297699E+07,
2460455.500000000, A.D. 2024-May-25 00:00:00.0000, 3.357706119838256E+08, 3.244380724517619E+08, -2.297154965155521E+07,
2460462.500000000, A.D. 2024-Jun-01 00:00:00.0000, 3.277297655786907E+08, 3.285613943423722E+08, -2.347711038568187E+07,
2460469.500000000, A.D. 2024-Jun-08 00:00:00.0000, 3.195303814373961E+08, 3.325260890027761E+08, -2.397129154155017E+07,
2460476.500000000, A.D. 2024-Jun-15 00:00:00.0000, 3.111735264382095E+08, 3.363272097362565E+08, -2.445363559575543E+07,
2460483.500000000, A.D. 2024-Jun-22 00:00:00.0000, 3.026603607843137E+08, 3.399596728655415E+08, -2.492367137186329E+07,
2460490.500000000, A.D. 2024-Jun-29 00:00:00.0000, 2.939921441559330E+08, 3.434182535546152E+08, -2.538091314144148E+07,
2460497.500000000, A.D. 2024-Jul-06 00:00:00.0000, 2.851702427215494E+08, 3.466975787704879E+08, -2.582485994379626E+07,
2460504.500000000, A.D. 2024-Jul-13 00:00:00.0000, 2.761961390172338E+08, 3.497921202204829E+08, -2.625499507270579E+07,
2460511.500000000, A.D. 2024-Jul-20 00:00:00.0000, 2.670714427698535E+08, 3.526961884264259E+08, -2.667078545427479E+07,
2460518.500000000, A.D. 2024-Jul-27 00:00:00.0000, 2.577979020740424E+08, 3.554039269942822E+08, -2.707168093446259E+07,
2460525.500000000, A.D. 2024-Aug-03 00:00:00.0000, 2.483774152679866E+08, 3.579093067277911E+08, -2.745711353274725E+07,
2460532.500000000, A.D. 2024-Aug-10 00:00:00.0000, 2.388120437522078E+08, 3.602061196108429E+08, -2.782649667878072E+07,
2460539.500000000, A.D. 2024-Aug-17 00:00:00.0000, 2.291040258835790E+08, 3.622879727161145E+08, -2.817922443641086E+07,
2460546.500000000, A.D. 2024-Aug-24 00:00:00.0000, 2.192557920641202E+08, 3.641482820612109E+08, -2.851467072185183E+07,
2460553.500000000, A.D. 2024-Aug-31 00:00:00.0000, 2.092699812390732E+08, 3.657802664034573E+08, -2.883218853473176E+07,
2460560.500000000, A.D. 2024-Sep-07 00:00:00.0000, 1.991494592764288E+08, 3.671769411633387E+08, -2.913110922921652E+07,
2460567.500000000, A.D. 2024-Sep-14 00:00:00.0000, 1.888973394287851E+08, 3.683311135481328E+08, -2.941074175682227E+07,
2460574.500000000, A.D. 2024-Sep-21 00:00:00.0000, 1.785170029716652E+08, 3.692353793746353E+08, -2.967037166707948E+07,
2460581.500000000, A.D. 2024-Sep-28 00:00:00.0000, 1.680121196576050E+08, 3.698821184663615E+08, -2.990926009155890E+07,
2460588.500000000, A.D. 2024-Oct-05 00:00:00.0000, 1.573866717934889E+08, 3.702634887553511E+08, -3.012664305671105E+07,
2460595.500000000, A.D. 2024-Oct-12 00:00:00.0000, 1.466449817290326E+08, 3.703714222158400E+08, -3.032173086011247E+07,
2460602.500000000, A.D. 2024-Oct-19 00:00:00.0000, 1.357917411578106E+08, 3.701976225283604E+08, -3.049370738417175E+07,
2460609.500000000, A.D. 2024-Oct-26 00:00:00.0000, 1.248320423557757E+08, 3.697335638729486E+08, -3.064172942474282E+07,
2460616.500000000, A.D. 2024-Nov-02 00:00:00.0000, 1.137714117768541E+08, 3.689704909375578E+08, -3.076492608835818E+07,
2460623.500000000, A.D. 2024-Nov-09 00:00:00.0000, 1.026158462669475E+08, 3.678994204353447E+08, -3.086239828666380E+07,
2460630.500000000, A.D. 2024-Nov-16 00:00:00.0000, 9.137185208639450E+07, 3.665111444478349E+08, -3.093321835574232E+07,
2460637.500000000, A.D. 2024-Nov-23 00:00:00.0000, 8.004648694751614E+07, 3.647962359104307E+08, -3.097642983853154E+07,
2460644.500000000, A.D. 2024-Nov-30 00:00:00.0000, 6.864740542563564E+07, 3.627450566200754E+08, -3.099104748786633E+07,
2460651.500000000, A.D. 2024-Dec-07 00:00:00.0000, 5.718290829705462E+07, 3.603477686719062E+08, -3.097605753514403E+07,
2460658.500000000, A.D. 2024-Dec-14 00:00:00.0000, 4.566199522678629E+07, 3.575943511059325E+08, -3.093041810936645E+07,
2460665.500000000, A.D. 2024-Dec-21 00:00:00.0000, 3.409441856479555E+07, 3.544746211507756E+08, -3.085305974959326E+07,
2460672.500000000, A.D. 2024-Dec-28 00:00:00.0000, 2.249074024318616E+07, 3.509782578072896E+08, -3.074288649493581E+07,
2460679.500000000, A.D. 2025-Jan-04 00:00:00.0000, 1.086239432551943E+07, 3.470948309650339E+08, -3.059877766874181E+07,
2460686.500000000, A.D. 2025-Jan-11 00:00:00.0000, -7.782467376801748E+05, 3.428138386281232E+08, -3.041959013844979E+07,
2460693.500000000, A.D. 2025-Jan-18 00:00:00.0000, -1.241780329902661E+07, 3.381247523502132E+08, -3.020416113681640E+07,
2460700.500000000, A.D. 2025-Jan-25 00:00:00.0000, -2.404181727740897E+07, 3.330170715324950E+08, -2.995131181278707E+07,
2460707.500000000, A.D. 2025-Feb-01 00:00:00.0000, -3.563467884336232E+07, 3.274803877872557E+08, -2.965985165104996E+07,
2460714.500000000, A.D. 2025-Feb-08 00:00:00.0000, -4.717955171840056E+07, 3.215044607132026E+08, -2.932858389394401E+07,
2460721.500000000, A.D. 2025-Feb-15 00:00:00.0000, -5.865829807276315E+07, 3.150793064723472E+08, -2.895631211041456E+07,
$$EOE